{"type": "FeatureCollection", "features": [ {"type": "Feature", "properties": {"norad_id": 38498, "name": "FENGYUN 1C DEB", "group": "fengyun-1c-debris", "lat": -1.7398418879523185, "lon": -176.6428454425784, "alt_km": 1336.0428538480246, "timestamp": "2025-12-08T23:34:04.259552+00:00", "meta": {"OBJECT_NAME": "FENGYUN 1C DEB", "OBJECT_ID": "1999-025ESH", "EPOCH": "2025-12-07T07:48:32.940000", "MEAN_MOTION": 12.96600945, "ECCENTRICITY": 0.05563263, "INCLINATION": 99.6989, "RA_OF_ASC_NODE": 2.1784, "ARG_OF_PERICENTER": 84.4862, "MEAN_ANOMALY": 281.9405, "EPHEMERIS_TYPE": 0, "CLASSIFICATION_TYPE": "U", "NORAD_CAT_ID": 38498, "ELEMENT_SET_NO": 999, "REV_AT_EPOCH": 53673, "BSTAR": 0.0019285441, "MEAN_MOTION_DOT": 1.094e-05, "MEAN_MOTION_DDOT": 0}, "tle": {"line1": "1 38498U 99025ESH 25341.32538125  .00001094  00000+0  19285-2 0  9991", "line2": "2 38498  99.6989   2.1784 0556326  84.4862 281.9405 12.96600945536730"}}, "geometry": {"type": "Point", "coordinates": [-176.6428454425784, -1.7398418879523185]}}, {"type": "Feature", "properties": {"norad_id": 38510, "name": "FENGYUN 1C DEB", "group": "fengyun-1c-debris", "lat": -6.768432467144856, "lon": 171.17617012230457, "alt_km": 787.6756021641459, "timestamp": "2025-12-08T23:34:04.259563+00:00", "meta": {"OBJECT_NAME": "FENGYUN 1C DEB", "OBJECT_ID": "1999-025ESV", "EPOCH": "2025-12-07T07:36:41.393664", "MEAN_MOTION": 14.13304798, "ECCENTRICITY": 0.00984571, "INCLINATION": 98.6019, "RA_OF_ASC_NODE": 350.6048, "ARG_OF_PERICENTER": 165.571, "MEAN_ANOMALY": 194.8311, "EPHEMERIS_TYPE": 0, "CLASSIFICATION_TYPE": "U", "NORAD_CAT_ID": 38510, "ELEMENT_SET_NO": 999, "REV_AT_EPOCH": 88593, "BSTAR": 0.00096053844, "MEAN_MOTION_DOT": 1.845e-05, "MEAN_MOTION_DDOT": 0}, "tle": {"line1": "1 38510U 99025ESV 25341.31714576  .00001845  00000+0  96054-3 0  9995", "line2": "2 38510  98.6019 350.6048 0098457 165.5710 194.8311 14.13304798885936"}}, "geometry": {"type": "Point", "coordinates": [171.17617012230457, -6.768432467144856]}}, {"type": "Feature", "properties": {"norad_id": 38512, "name": "FENGYUN 1C DEB", "group": "fengyun-1c-debris", "lat": 36.294045289540755, "lon": -140.95232887243438, "alt_km": 945.9547515828917, "timestamp": "2025-12-08T23:34:04.259573+00:00", "meta": {"OBJECT_NAME": "FENGYUN 1C DEB", "OBJECT_ID": "1999-025ESX", "EPOCH": "2025-12-07T03:41:42.572544", "MEAN_MOTION": 13.73960219, "ECCENTRICITY": 0.02263449, "INCLINATION": 98.3801, "RA_OF_ASC_NODE": 223.6575, "ARG_OF_PERICENTER": 120.2765, "MEAN_ANOMALY": 242.0997, "EPHEMERIS_TYPE": 0, "CLASSIFICATION_TYPE": "U", "NORAD_CAT_ID": 38512, "ELEMENT_SET_NO": 999, "REV_AT_EPOCH": 59493, "BSTAR": 0.0015630573, "MEAN_MOTION_DOT": 1.73e-05, "MEAN_MOTION_DDOT": 0}, "tle": {"line1": "1 38512U 99025ESX 25341.15396496  .00001730  00000+0  15631-2 0  9990", "line2": "2 38512  98.3801 223.6575 0226344 120.2765 242.0997 13.73960219594938"}}, "geometry": {"type": "Point", "coordinates": [-140.95232887243438, 36.294045289540755]}}, {"type": "Feature", "properties": {"norad_id": 38514, "name": "FENGYUN 1C DEB", "group": "fengyun-1c-debris", "lat": -79.75759655030143, "lon": 64.5360017027227, "alt_km": 905.1324114568642, "timestamp": "2025-12-08T23:34:04.259583+00:00", "meta": {"OBJECT_NAME": "FENGYUN 1C DEB", "OBJECT_ID": "1999-025ESZ", "EPOCH": "2025-12-05T21:18:35.296992", "MEAN_MOTION": 14.15398664, "ECCENTRICITY": 0.02716454, "INCLINATION": 98.0566, "RA_OF_ASC_NODE": 10.1192, "ARG_OF_PERICENTER": 33.8686, "MEAN_ANOMALY": 327.9511, "EPHEMERIS_TYPE": 0, "CLASSIFICATION_TYPE": "U", "NORAD_CAT_ID": 38514, "ELEMENT_SET_NO": 999, "REV_AT_EPOCH": 87899, "BSTAR": 0.0084481193, "MEAN_MOTION_DOT": 0.00023594, "MEAN_MOTION_DDOT": 0}, "tle": {"line1": "1 38514U 99025ESZ 25339.88790853  .00023594  00000+0  84481-2 0  9995", "line2": "2 38514  98.0566  10.1192 0271645  33.8686 327.9511 14.15398664878996"}}, "geometry": {"type": "Point", "coordinates": [64.5360017027227, -79.75759655030143]}}, {"type": "Feature", "properties": {"norad_id": 38516, "name": "FENGYUN 1C DEB", "group": "fengyun-1c-debris", "lat": 2.6305145799612677, "lon": -33.40853645982149, "alt_km": 835.1639629901556, "timestamp": "2025-12-08T23:34:04.259593+00:00", "meta": {"OBJECT_NAME": "FENGYUN 1C DEB", "OBJECT_ID": "1999-025ETB", "EPOCH": "2025-12-03T04:33:56.311776", "MEAN_MOTION": 14.34038032, "ECCENTRICITY": 0.01111458, "INCLINATION": 98.4411, "RA_OF_ASC_NODE": 321.328, "ARG_OF_PERICENTER": 153.504, "MEAN_ANOMALY": 207.1887, "EPHEMERIS_TYPE": 0, "CLASSIFICATION_TYPE": "U", "NORAD_CAT_ID": 38516, "ELEMENT_SET_NO": 999, "REV_AT_EPOCH": 84736, "BSTAR": 0.00014402251, "MEAN_MOTION_DOT": 3.87e-06, "MEAN_MOTION_DDOT": 0}, "tle": {"line1": "1 38516U 99025ETB 25337.19023509  .00000387  00000+0  14402-3 0  9998", "line2": "2 38516  98.4411 321.3280 0111145 153.5040 207.1887 14.34038032847361"}}, "geometry": {"type": "Point", "coordinates": [-33.40853645982149, 2.6305145799612677]}}, {"type": "Feature", "properties": {"norad_id": 38717, "name": "FENGYUN 1C DEB", "group": "fengyun-1c-debris", "lat": 52.24575537317174, "lon": -13.95810492147491, "alt_km": 793.3975390379865, "timestamp": "2025-12-08T23:34:04.259604+00:00", "meta": {"OBJECT_NAME": "FENGYUN 1C DEB", "OBJECT_ID": "1999-025ETJ", "EPOCH": "2025-12-07T23:46:50.838816", "MEAN_MOTION": 14.19881201, "ECCENTRICITY": 0.00569464, "INCLINATION": 99.1587, "RA_OF_ASC_NODE": 357.0411, "ARG_OF_PERICENTER": 7.7496, "MEAN_ANOMALY": 21.6196, "EPHEMERIS_TYPE": 0, "CLASSIFICATION_TYPE": "U", "NORAD_CAT_ID": 38717, "ELEMENT_SET_NO": 999, "REV_AT_EPOCH": 58359, "BSTAR": 0.0023838739, "MEAN_MOTION_DOT": 5.097e-05, "MEAN_MOTION_DDOT": 0}, "tle": {"line1": "1 38717U 99025ETJ 25341.99086619  .00005097  00000+0  23839-2 0  9991", "line2": "2 38717  99.1587 357.0411 0056946   7.7496  21.6196 14.19881201583591"}}, "geometry": {"type": "Point", "coordinates": [-13.95810492147491, 52.24575537317174]}}, {"type": "Feature", "properties": {"norad_id": 38722, "name": "FENGYUN 1C DEB", "group": "fengyun-1c-debris", "lat": -71.75721372549852, "lon": 110.83862015270557, "alt_km": 810.7657667867652, "timestamp": "2025-12-08T23:34:04.259614+00:00", "meta": {"OBJECT_NAME": "FENGYUN 1C DEB", "OBJECT_ID": "1999-025ETP", "EPOCH": "2025-12-07T11:41:09.627072", "MEAN_MOTION": 14.58179572, "ECCENTRICITY": 0.01480338, "INCLINATION": 99.3541, "RA_OF_ASC_NODE": 79.152, "ARG_OF_PERICENTER": 110.7247, "MEAN_ANOMALY": 250.9886, "EPHEMERIS_TYPE": 0, "CLASSIFICATION_TYPE": "U", "NORAD_CAT_ID": 38722, "ELEMENT_SET_NO": 999, "REV_AT_EPOCH": 70387, "BSTAR": 0.0047477196, "MEAN_MOTION_DOT": 0.00025504, "MEAN_MOTION_DDOT": 0}, "tle": {"line1": "1 38722U 99025ETP 25341.48691698  .00025504  00000+0  47477-2 0  9999", "line2": "2 38722  99.3541  79.1520 0148033 110.7247 250.9886 14.58179572703872"}}, "geometry": {"type": "Point", "coordinates": [110.83862015270557, -71.75721372549852]}}, {"type": "Feature", "properties": {"norad_id": 38724, "name": "FENGYUN 1C DEB", "group": "fengyun-1c-debris", "lat": 70.52751357170342, "lon": -33.77454846423303, "alt_km": 746.1613860849329, "timestamp": "2025-12-08T23:34:04.259624+00:00", "meta": {"OBJECT_NAME": "FENGYUN 1C DEB", "OBJECT_ID": "1999-025ETR", "EPOCH": "2025-11-13T12:10:01.066656", "MEAN_MOTION": 14.14277973, "ECCENTRICITY": 0.012547, "INCLINATION": 98.7406, "RA_OF_ASC_NODE": 327.0705, "ARG_OF_PERICENTER": 154.7752, "MEAN_ANOMALY": 205.962, "EPHEMERIS_TYPE": 0, "CLASSIFICATION_TYPE": "U", "NORAD_CAT_ID": 38724, "ELEMENT_SET_NO": 999, "REV_AT_EPOCH": 56211, "BSTAR": 0.0084973, "MEAN_MOTION_DOT": 0.00017498, "MEAN_MOTION_DDOT": 0}, "tle": {"line1": "1 38724U 99025ETR 25317.50695679  .00017498  00000+0  84973-2 0  9995", "line2": "2 38724  98.7406 327.0705 0125470 154.7752 205.9620 14.14277973562118"}}, "geometry": {"type": "Point", "coordinates": [-33.77454846423303, 70.52751357170342]}}, {"type": "Feature", "properties": {"norad_id": 38725, "name": "FENGYUN 1C DEB", "group": "fengyun-1c-debris", "lat": 3.091000764276301, "lon": 107.57358509739025, "alt_km": 754.3823115395626, "timestamp": "2025-12-08T23:34:04.259635+00:00", "meta": {"OBJECT_NAME": "FENGYUN 1C DEB", "OBJECT_ID": "1999-025ETS", "EPOCH": "2025-12-08T01:54:53.946720", "MEAN_MOTION": 14.4269685, "ECCENTRICITY": 0.00343724, "INCLINATION": 98.8732, "RA_OF_ASC_NODE": 107.1185, "ARG_OF_PERICENTER": 270.29, "MEAN_ANOMALY": 89.435, "EPHEMERIS_TYPE": 0, "CLASSIFICATION_TYPE": "U", "NORAD_CAT_ID": 38725, "ELEMENT_SET_NO": 999, "REV_AT_EPOCH": 73285, "BSTAR": 0.0035868428, "MEAN_MOTION_DOT": 0.00011993, "MEAN_MOTION_DDOT": 0}, "tle": {"line1": "1 38725U 99025ETS 25342.07979105  .00011993  00000+0  35868-2 0  9998", "line2": "2 38725  98.8732 107.1185 0034372 270.2900  89.4350 14.42696850732855"}}, "geometry": {"type": "Point", "coordinates": [107.57358509739025, 3.091000764276301]}}, {"type": "Feature", "properties": {"norad_id": 38726, "name": "FENGYUN 1C DEB", "group": "fengyun-1c-debris", "lat": -60.33378805819774, "lon": 169.9635427681788, "alt_km": 571.2929548979209, "timestamp": "2025-12-08T23:34:04.259645+00:00", "meta": {"OBJECT_NAME": "FENGYUN 1C DEB", "OBJECT_ID": "1999-025ETT", "EPOCH": "2025-12-08T08:06:33.587136", "MEAN_MOTION": 15.02080427, "ECCENTRICITY": 0.0023215, "INCLINATION": 99.1372, "RA_OF_ASC_NODE": 5.619, "ARG_OF_PERICENTER": 138.9508, "MEAN_ANOMALY": 221.3464, "EPHEMERIS_TYPE": 0, "CLASSIFICATION_TYPE": "U", "NORAD_CAT_ID": 38726, "ELEMENT_SET_NO": 999, "REV_AT_EPOCH": 69789, "BSTAR": 0.0068161378, "MEAN_MOTION_DOT": 0.00091061, "MEAN_MOTION_DDOT": 0}, "tle": {"line1": "1 38726U 99025ETT 25342.33788874  .00091061  00000+0  68161-2 0  9995", "line2": "2 38726  99.1372   5.6190 0023215 138.9508 221.3464 15.02080427697897"}}, "geometry": {"type": "Point", "coordinates": [169.9635427681788, -60.33378805819774]}}]}